PRC TEST SPACECRAFT 4   
1 67689U 26024A   26046.18561241  .00000291  00000+0  52591-4 0  9993
2 67689  49.9852 128.4109 0006191 273.3840  86.6393 14.91672947  1224
CZ-2F R/B               
1 67690U 26024B   26043.68605831  .00010419  00000+0  20043-3 0  9990
2 67690  49.9859 139.9043 0177333 171.2576 189.1542 15.33223548   855
CZ-2F DEB               
1 67691U 26024C   26045.63841852  .00604174  10286-4  82656-3 0  9990
2 67691  49.9092 128.5655 0257786 186.1908 173.5858 15.65371095  1161
CZ-2F DEB               
1 67692U 26024D   26043.47249242  .00008960  00000+0  18237-3 0  9999
2 67692  50.2497 141.4689 0244463 185.6574 174.1612 15.21014172   827
STARLINK-36748          
1 67693U 26025A   26046.16668981 -.01294370  53878-3 -23278-2 0  9995
2 67693  97.2805 156.4063 0001634  57.7339 154.0079 16.01722089  2225
STARLINK-36753          
1 67694U 26025B   26046.16668981 -.01277713  53004-3 -22110-2 0  9993
2 67694  97.2800 156.4108 0001601  63.6518 157.9425 16.02383472  2384
STARLINK-36750          
1 67695U 26025C   26046.16668981 -.01286428  53416-3 -22812-2 0  9993
2 67695  97.2804 156.4077 0001422  65.2741 150.0621 16.01964317  2228
STARLINK-36401          
1 67696U 26025D   26046.16668981 -.01259759  51495-3 -22095-2 0  9999
2 67696  97.2803 156.4090 0001567  59.4465 158.8574 16.02149439  2225
STARLINK-36704          
1 67697U 26025E   26046.16668981 -.01273135  52788-3 -21750-2 0  9997
2 67697  97.2797 156.4120 0001539  59.5346 165.3658 16.02603274  2228
STARLINK-36697          
1 67698U 26025F   26046.16668981 -.01233533  49874-3 -20889-2 0  9990
2 67698  97.2797 156.4131 0001591  58.4706 168.8891 16.02747792  2172
STARLINK-36716          
1 67699U 26025G   26046.16668981 -.01234526  50072-3 -20648-2 0  9999
2 67699  97.2799 156.4139 0001476  61.6203 168.8434 16.02960012  2381
STARLINK-36712          
1 67700U 26025H   26046.16668981 -.01226112  49567-3 -20249-2 0  9998
2 67700  97.2795 156.4159 0001498  50.5044 182.9802 16.03173629  2170
