CCSDS_OMM_VERS = 2.0
CREATION_DATE  = 
ORIGINATOR     = 

OBJECT_NAME    = PRC TEST SPACECRAFT 4
OBJECT_ID      = 2026-024A
CENTER_NAME    = EARTH
REF_FRAME      = TEME
TIME_SYSTEM    = UTC
MEAN_ELEMENT_THEORY = SGP/SGP4

EPOCH          = 2026-02-15T04:27:16.912224
MEAN_MOTION    = 14.91672947
ECCENTRICITY   = .0006191
INCLINATION    = 49.9852
RA_OF_ASC_NODE = 128.4109
ARG_OF_PERICENTER = 273.3840
MEAN_ANOMALY   = 86.6393

EPHEMERIS_TYPE = 0
CLASSIFICATION_TYPE = U
NORAD_CAT_ID   = 67689
ELEMENT_SET_NO = 999
REV_AT_EPOCH   = 122
BSTAR          = .52591E-4
MEAN_MOTION_DOT = .291E-5
MEAN_MOTION_DDOT = 0

CCSDS_OMM_VERS = 2.0
CREATION_DATE  = 
ORIGINATOR     = 

OBJECT_NAME    = CZ-2F R/B
OBJECT_ID      = 2026-024B
CENTER_NAME    = EARTH
REF_FRAME      = TEME
TIME_SYSTEM    = UTC
MEAN_ELEMENT_THEORY = SGP/SGP4

EPOCH          = 2026-02-12T16:27:55.437984
MEAN_MOTION    = 15.33223548
ECCENTRICITY   = .01773338
INCLINATION    = 49.9859
RA_OF_ASC_NODE = 139.9043
ARG_OF_PERICENTER = 171.2576
MEAN_ANOMALY   = 189.1542

EPHEMERIS_TYPE = 0
CLASSIFICATION_TYPE = U
NORAD_CAT_ID   = 67690
ELEMENT_SET_NO = 999
REV_AT_EPOCH   = 85
BSTAR          = .200431E-3
MEAN_MOTION_DOT = .10419E-3
MEAN_MOTION_DDOT = 0

CCSDS_OMM_VERS = 2.0
CREATION_DATE  = 
ORIGINATOR     = 

OBJECT_NAME    = CZ-2F DEB
OBJECT_ID      = 2026-024C
CENTER_NAME    = EARTH
REF_FRAME      = TEME
TIME_SYSTEM    = UTC
MEAN_ELEMENT_THEORY = SGP/SGP4

EPOCH          = 2026-02-14T15:19:19.360128
MEAN_MOTION    = 15.65371095
ECCENTRICITY   = .0257786
INCLINATION    = 49.9092
RA_OF_ASC_NODE = 128.5655
ARG_OF_PERICENTER = 186.1908
MEAN_ANOMALY   = 173.5858

EPHEMERIS_TYPE = 0
CLASSIFICATION_TYPE = U
NORAD_CAT_ID   = 67691
ELEMENT_SET_NO = 999
REV_AT_EPOCH   = 116
BSTAR          = .82656E-3
MEAN_MOTION_DOT = .604174E-2
MEAN_MOTION_DDOT = .10286E-4

CCSDS_OMM_VERS = 2.0
CREATION_DATE  = 
ORIGINATOR     = 

OBJECT_NAME    = CZ-2F DEB
OBJECT_ID      = 2026-024D
CENTER_NAME    = EARTH
REF_FRAME      = TEME
TIME_SYSTEM    = UTC
MEAN_ELEMENT_THEORY = SGP/SGP4

EPOCH          = 2026-02-12T11:20:23.345088
MEAN_MOTION    = 15.21014172
ECCENTRICITY   = .02444636
INCLINATION    = 50.2497
RA_OF_ASC_NODE = 141.4689
ARG_OF_PERICENTER = 185.6574
MEAN_ANOMALY   = 174.1612

EPHEMERIS_TYPE = 0
CLASSIFICATION_TYPE = U
NORAD_CAT_ID   = 67692
ELEMENT_SET_NO = 999
REV_AT_EPOCH   = 82
BSTAR          = .18236751E-3
MEAN_MOTION_DOT = .896E-4
MEAN_MOTION_DDOT = 0

CCSDS_OMM_VERS = 2.0
CREATION_DATE  = 
ORIGINATOR     = 

OBJECT_NAME    = STARLINK-36748
OBJECT_ID      = 2026-025A
CENTER_NAME    = EARTH
REF_FRAME      = TEME
TIME_SYSTEM    = UTC
MEAN_ELEMENT_THEORY = SGP/SGP4

EPOCH          = 2026-02-15T04:00:01.999584
MEAN_MOTION    = 16.01722089
ECCENTRICITY   = .0001634
INCLINATION    = 97.2805
RA_OF_ASC_NODE = 156.4063
ARG_OF_PERICENTER = 57.7339
MEAN_ANOMALY   = 154.0079

EPHEMERIS_TYPE = 0
CLASSIFICATION_TYPE = U
NORAD_CAT_ID   = 67693
ELEMENT_SET_NO = 999
REV_AT_EPOCH   = 222
BSTAR          = -.23278E-2
MEAN_MOTION_DOT = -.129437E-1
MEAN_MOTION_DDOT = .53878E-3

CCSDS_OMM_VERS = 2.0
CREATION_DATE  = 
ORIGINATOR     = 

OBJECT_NAME    = STARLINK-36753
OBJECT_ID      = 2026-025B
CENTER_NAME    = EARTH
REF_FRAME      = TEME
TIME_SYSTEM    = UTC
MEAN_ELEMENT_THEORY = SGP/SGP4

EPOCH          = 2026-02-15T04:00:01.999584
MEAN_MOTION    = 16.02383472
ECCENTRICITY   = .0001601
INCLINATION    = 97.2800
RA_OF_ASC_NODE = 156.4108
ARG_OF_PERICENTER = 63.6518
MEAN_ANOMALY   = 157.9425

EPHEMERIS_TYPE = 0
CLASSIFICATION_TYPE = U
NORAD_CAT_ID   = 67694
ELEMENT_SET_NO = 999
REV_AT_EPOCH   = 238
BSTAR          = -.2211E-2
MEAN_MOTION_DOT = -.1277713E-1
MEAN_MOTION_DDOT = .53004E-3

CCSDS_OMM_VERS = 2.0
CREATION_DATE  = 
ORIGINATOR     = 

OBJECT_NAME    = STARLINK-36750
OBJECT_ID      = 2026-025C
CENTER_NAME    = EARTH
REF_FRAME      = TEME
TIME_SYSTEM    = UTC
MEAN_ELEMENT_THEORY = SGP/SGP4

EPOCH          = 2026-02-15T04:00:01.999584
MEAN_MOTION    = 16.01964317
ECCENTRICITY   = .0001422
INCLINATION    = 97.2804
RA_OF_ASC_NODE = 156.4077
ARG_OF_PERICENTER = 65.2741
MEAN_ANOMALY   = 150.0621

EPHEMERIS_TYPE = 0
CLASSIFICATION_TYPE = U
NORAD_CAT_ID   = 67695
ELEMENT_SET_NO = 999
REV_AT_EPOCH   = 222
BSTAR          = -.22812E-2
MEAN_MOTION_DOT = -.1286428E-1
MEAN_MOTION_DDOT = .53416E-3

CCSDS_OMM_VERS = 2.0
CREATION_DATE  = 
ORIGINATOR     = 

OBJECT_NAME    = STARLINK-36401
OBJECT_ID      = 2026-025D
CENTER_NAME    = EARTH
REF_FRAME      = TEME
TIME_SYSTEM    = UTC
MEAN_ELEMENT_THEORY = SGP/SGP4

EPOCH          = 2026-02-15T04:00:01.999584
MEAN_MOTION    = 16.02149439
ECCENTRICITY   = .0001567
INCLINATION    = 97.2803
RA_OF_ASC_NODE = 156.4090
ARG_OF_PERICENTER = 59.4465
MEAN_ANOMALY   = 158.8574

EPHEMERIS_TYPE = 0
CLASSIFICATION_TYPE = U
NORAD_CAT_ID   = 67696
ELEMENT_SET_NO = 999
REV_AT_EPOCH   = 222
BSTAR          = -.22095E-2
MEAN_MOTION_DOT = -.1259759E-1
MEAN_MOTION_DDOT = .51495E-3

CCSDS_OMM_VERS = 2.0
CREATION_DATE  = 
ORIGINATOR     = 

OBJECT_NAME    = STARLINK-36704
OBJECT_ID      = 2026-025E
CENTER_NAME    = EARTH
REF_FRAME      = TEME
TIME_SYSTEM    = UTC
MEAN_ELEMENT_THEORY = SGP/SGP4

EPOCH          = 2026-02-15T04:00:01.999584
MEAN_MOTION    = 16.02603274
ECCENTRICITY   = .0001539
INCLINATION    = 97.2797
RA_OF_ASC_NODE = 156.4120
ARG_OF_PERICENTER = 59.5346
MEAN_ANOMALY   = 165.3658

EPHEMERIS_TYPE = 0
CLASSIFICATION_TYPE = U
NORAD_CAT_ID   = 67697
ELEMENT_SET_NO = 999
REV_AT_EPOCH   = 222
BSTAR          = -.2175E-2
MEAN_MOTION_DOT = -.1273135E-1
MEAN_MOTION_DDOT = .52788E-3

CCSDS_OMM_VERS = 2.0
CREATION_DATE  = 
ORIGINATOR     = 

OBJECT_NAME    = STARLINK-36697
OBJECT_ID      = 2026-025F
CENTER_NAME    = EARTH
REF_FRAME      = TEME
TIME_SYSTEM    = UTC
MEAN_ELEMENT_THEORY = SGP/SGP4

EPOCH          = 2026-02-15T04:00:01.999584
MEAN_MOTION    = 16.02747792
ECCENTRICITY   = .0001591
INCLINATION    = 97.2797
RA_OF_ASC_NODE = 156.4131
ARG_OF_PERICENTER = 58.4706
MEAN_ANOMALY   = 168.8891

EPHEMERIS_TYPE = 0
CLASSIFICATION_TYPE = U
NORAD_CAT_ID   = 67698
ELEMENT_SET_NO = 999
REV_AT_EPOCH   = 217
BSTAR          = -.20889E-2
MEAN_MOTION_DOT = -.1233533E-1
MEAN_MOTION_DDOT = .49874E-3

CCSDS_OMM_VERS = 2.0
CREATION_DATE  = 
ORIGINATOR     = 

OBJECT_NAME    = STARLINK-36716
OBJECT_ID      = 2026-025G
CENTER_NAME    = EARTH
REF_FRAME      = TEME
TIME_SYSTEM    = UTC
MEAN_ELEMENT_THEORY = SGP/SGP4

EPOCH          = 2026-02-15T04:00:01.999584
MEAN_MOTION    = 16.02960012
ECCENTRICITY   = .0001476
INCLINATION    = 97.2799
RA_OF_ASC_NODE = 156.4139
ARG_OF_PERICENTER = 61.6203
MEAN_ANOMALY   = 168.8434

EPHEMERIS_TYPE = 0
CLASSIFICATION_TYPE = U
NORAD_CAT_ID   = 67699
ELEMENT_SET_NO = 999
REV_AT_EPOCH   = 238
BSTAR          = -.20648E-2
MEAN_MOTION_DOT = -.1234526E-1
MEAN_MOTION_DDOT = .50072E-3

CCSDS_OMM_VERS = 2.0
CREATION_DATE  = 
ORIGINATOR     = 

OBJECT_NAME    = STARLINK-36712
OBJECT_ID      = 2026-025H
CENTER_NAME    = EARTH
REF_FRAME      = TEME
TIME_SYSTEM    = UTC
MEAN_ELEMENT_THEORY = SGP/SGP4

EPOCH          = 2026-02-15T04:00:01.999584
MEAN_MOTION    = 16.03173629
ECCENTRICITY   = .0001498
INCLINATION    = 97.2795
RA_OF_ASC_NODE = 156.4159
ARG_OF_PERICENTER = 50.5044
MEAN_ANOMALY   = 182.9802

EPHEMERIS_TYPE = 0
CLASSIFICATION_TYPE = U
NORAD_CAT_ID   = 67700
ELEMENT_SET_NO = 999
REV_AT_EPOCH   = 217
BSTAR          = -.20249E-2
MEAN_MOTION_DOT = -.1226112E-1
MEAN_MOTION_DDOT = .49567E-3

